STARLINK-35429          
1 66590U 25270C   25359.73450915  .00072845  00000+0  17332-2 0  9993
2 66590  43.0020 117.4547 0001639 273.6487  86.4182 15.40721997  6462
STARLINK-36058          
1 66591U 25270D   25360.62642552  .00048570  00000+0  11610-2 0  9995
2 66591  43.0054 112.1064 0002693 284.3087  75.7470 15.40738813  6491
STARLINK-36066          
1 66592U 25270E   25360.34260752  .00057643  00000+0  13745-2 0  9995
2 66592  43.0012 114.2820 0001723 268.5662  91.4997 15.40749213  6344
STARLINK-36031          
1 66593U 25270F   25360.71591266  .00051823  00000+0  12376-2 0  9997
2 66593  43.0007 111.9193 0001765  34.9432 325.1540 15.40744951  6505
STARLINK-36032          
1 66594U 25270G   25360.63314387  .00051752  00000+0  12387-2 0  9999
2 66594  42.9999 112.1553 0002447 282.7997  77.2586 15.40675984  6306
STARLINK-35711          
1 66595U 25270H   25360.61746870  .00059014  00000+0  14088-2 0  9993
2 66595  42.9982 112.0335 0000288 200.2134 159.8711 15.40706631  6609
STARLINK-35811          
1 66596U 25270J   25360.67123076  .00068584  00000+0  16365-2 0  9999
2 66596  42.9994 112.4481 0000821 285.2412  74.8354 15.40660741  6604
STARLINK-35820          
1 66597U 25270K   25360.72710086  .00066709  00000+0  15888-2 0  9995
2 66597  43.0019 112.0061 0001570 267.3667  92.7010 15.40727442  6611
STARLINK-35981          
1 66598U 25270L   25359.60933337  .00056078  00000+0  13375-2 0  9994
2 66598  42.9985 118.2329 0001255 277.5792  82.4921 15.40753530  6185
STARLINK-35930          
1 66599U 25270M   25360.62194626  .00044540  00000+0  10666-2 0  9990
2 66599  43.0021 112.0674 0001848 277.3750  82.6897 15.40718778  6497
STARLINK-35980          
1 66600U 25270N   25360.70245898  .00047457  00000+0  11356-2 0  9997
2 66600  43.0005 111.8156 0001412 264.0328  96.0368 15.40717072  6404
STARLINK-35978          
1 66601U 25270P   25360.59072251  .00054433  00000+0  12989-2 0  9991
2 66601  43.0003 112.7006 0000483 109.4058 250.6851 15.40750428  6324
