CCSDS_OMM_VERS = 2.0
CREATION_DATE  = 
ORIGINATOR     = 

OBJECT_NAME    = STARLINK-35429
OBJECT_ID      = 2025-270C
CENTER_NAME    = EARTH
REF_FRAME      = TEME
TIME_SYSTEM    = UTC
MEAN_ELEMENT_THEORY = SGP/SGP4

EPOCH          = 2025-12-25T17:37:41.590560
MEAN_MOTION    = 15.40721997
ECCENTRICITY   = .0001639
INCLINATION    = 43.0020
RA_OF_ASC_NODE = 117.4547
ARG_OF_PERICENTER = 273.6487
MEAN_ANOMALY   = 86.4182

EPHEMERIS_TYPE = 0
CLASSIFICATION_TYPE = U
NORAD_CAT_ID   = 66590
ELEMENT_SET_NO = 999
REV_AT_EPOCH   = 646
BSTAR          = .1733211E-2
MEAN_MOTION_DOT = .72845E-3
MEAN_MOTION_DDOT = 0

CCSDS_OMM_VERS = 2.0
CREATION_DATE  = 
ORIGINATOR     = 

OBJECT_NAME    = STARLINK-36058
OBJECT_ID      = 2025-270D
CENTER_NAME    = EARTH
REF_FRAME      = TEME
TIME_SYSTEM    = UTC
MEAN_ELEMENT_THEORY = SGP/SGP4

EPOCH          = 2025-12-26T15:02:03.164928
MEAN_MOTION    = 15.40738813
ECCENTRICITY   = .00026937
INCLINATION    = 43.0054
RA_OF_ASC_NODE = 112.1064
ARG_OF_PERICENTER = 284.3087
MEAN_ANOMALY   = 75.7470

EPHEMERIS_TYPE = 0
CLASSIFICATION_TYPE = U
NORAD_CAT_ID   = 66591
ELEMENT_SET_NO = 999
REV_AT_EPOCH   = 649
BSTAR          = .11610165E-2
MEAN_MOTION_DOT = .4857E-3
MEAN_MOTION_DDOT = 0

CCSDS_OMM_VERS = 2.0
CREATION_DATE  = 
ORIGINATOR     = 

OBJECT_NAME    = STARLINK-36066
OBJECT_ID      = 2025-270E
CENTER_NAME    = EARTH
REF_FRAME      = TEME
TIME_SYSTEM    = UTC
MEAN_ELEMENT_THEORY = SGP/SGP4

EPOCH          = 2025-12-26T08:13:21.289728
MEAN_MOTION    = 15.40749213
ECCENTRICITY   = .0001723
INCLINATION    = 43.0012
RA_OF_ASC_NODE = 114.2820
ARG_OF_PERICENTER = 268.5662
MEAN_ANOMALY   = 91.4997

EPHEMERIS_TYPE = 0
CLASSIFICATION_TYPE = U
NORAD_CAT_ID   = 66592
ELEMENT_SET_NO = 999
REV_AT_EPOCH   = 634
BSTAR          = .13745E-2
MEAN_MOTION_DOT = .57643E-3
MEAN_MOTION_DDOT = 0

CCSDS_OMM_VERS = 2.0
CREATION_DATE  = 
ORIGINATOR     = 

OBJECT_NAME    = STARLINK-36031
OBJECT_ID      = 2025-270F
CENTER_NAME    = EARTH
REF_FRAME      = TEME
TIME_SYSTEM    = UTC
MEAN_ELEMENT_THEORY = SGP/SGP4

EPOCH          = 2025-12-26T17:10:54.853824
MEAN_MOTION    = 15.40744951
ECCENTRICITY   = .00017656
INCLINATION    = 43.0007
RA_OF_ASC_NODE = 111.9193
ARG_OF_PERICENTER = 34.9432
MEAN_ANOMALY   = 325.1540

EPHEMERIS_TYPE = 0
CLASSIFICATION_TYPE = U
NORAD_CAT_ID   = 66593
ELEMENT_SET_NO = 999
REV_AT_EPOCH   = 650
BSTAR          = .12375744E-2
MEAN_MOTION_DOT = .51823E-3
MEAN_MOTION_DDOT = 0

CCSDS_OMM_VERS = 2.0
CREATION_DATE  = 
ORIGINATOR     = 

OBJECT_NAME    = STARLINK-36032
OBJECT_ID      = 2025-270G
CENTER_NAME    = EARTH
REF_FRAME      = TEME
TIME_SYSTEM    = UTC
MEAN_ELEMENT_THEORY = SGP/SGP4

EPOCH          = 2025-12-26T15:11:43.630368
MEAN_MOTION    = 15.40675984
ECCENTRICITY   = .00024472
INCLINATION    = 42.9999
RA_OF_ASC_NODE = 112.1553
ARG_OF_PERICENTER = 282.7997
MEAN_ANOMALY   = 77.2586

EPHEMERIS_TYPE = 0
CLASSIFICATION_TYPE = U
NORAD_CAT_ID   = 66594
ELEMENT_SET_NO = 999
REV_AT_EPOCH   = 630
BSTAR          = .12386841E-2
MEAN_MOTION_DOT = .51752E-3
MEAN_MOTION_DDOT = 0

CCSDS_OMM_VERS = 2.0
CREATION_DATE  = 
ORIGINATOR     = 

OBJECT_NAME    = STARLINK-35711
OBJECT_ID      = 2025-270H
CENTER_NAME    = EARTH
REF_FRAME      = TEME
TIME_SYSTEM    = UTC
MEAN_ELEMENT_THEORY = SGP/SGP4

EPOCH          = 2025-12-26T14:49:09.295680
MEAN_MOTION    = 15.40706631
ECCENTRICITY   = .0000288
INCLINATION    = 42.9982
RA_OF_ASC_NODE = 112.0335
ARG_OF_PERICENTER = 200.2134
MEAN_ANOMALY   = 159.8711

EPHEMERIS_TYPE = 0
CLASSIFICATION_TYPE = U
NORAD_CAT_ID   = 66595
ELEMENT_SET_NO = 999
REV_AT_EPOCH   = 660
BSTAR          = .14088E-2
MEAN_MOTION_DOT = .59014E-3
MEAN_MOTION_DDOT = 0

CCSDS_OMM_VERS = 2.0
CREATION_DATE  = 
ORIGINATOR     = 

OBJECT_NAME    = STARLINK-35811
OBJECT_ID      = 2025-270J
CENTER_NAME    = EARTH
REF_FRAME      = TEME
TIME_SYSTEM    = UTC
MEAN_ELEMENT_THEORY = SGP/SGP4

EPOCH          = 2025-12-26T16:06:34.337664
MEAN_MOTION    = 15.40660741
ECCENTRICITY   = .00008218
INCLINATION    = 42.9994
RA_OF_ASC_NODE = 112.4481
ARG_OF_PERICENTER = 285.2412
MEAN_ANOMALY   = 74.8354

EPHEMERIS_TYPE = 0
CLASSIFICATION_TYPE = U
NORAD_CAT_ID   = 66596
ELEMENT_SET_NO = 999
REV_AT_EPOCH   = 660
BSTAR          = .16365049E-2
MEAN_MOTION_DOT = .68584E-3
MEAN_MOTION_DDOT = 0

CCSDS_OMM_VERS = 2.0
CREATION_DATE  = 
ORIGINATOR     = 

OBJECT_NAME    = STARLINK-35820
OBJECT_ID      = 2025-270K
CENTER_NAME    = EARTH
REF_FRAME      = TEME
TIME_SYSTEM    = UTC
MEAN_ELEMENT_THEORY = SGP/SGP4

EPOCH          = 2025-12-26T17:27:01.514304
MEAN_MOTION    = 15.40727442
ECCENTRICITY   = .00015706
INCLINATION    = 43.0019
RA_OF_ASC_NODE = 112.0061
ARG_OF_PERICENTER = 267.3667
MEAN_ANOMALY   = 92.7010

EPHEMERIS_TYPE = 0
CLASSIFICATION_TYPE = U
NORAD_CAT_ID   = 66597
ELEMENT_SET_NO = 999
REV_AT_EPOCH   = 661
BSTAR          = .15888312E-2
MEAN_MOTION_DOT = .66709E-3
MEAN_MOTION_DDOT = 0

CCSDS_OMM_VERS = 2.0
CREATION_DATE  = 
ORIGINATOR     = 

OBJECT_NAME    = STARLINK-35981
OBJECT_ID      = 2025-270L
CENTER_NAME    = EARTH
REF_FRAME      = TEME
TIME_SYSTEM    = UTC
MEAN_ELEMENT_THEORY = SGP/SGP4

EPOCH          = 2025-12-25T14:37:26.403168
MEAN_MOTION    = 15.40753530
ECCENTRICITY   = .0001255
INCLINATION    = 42.9985
RA_OF_ASC_NODE = 118.2329
ARG_OF_PERICENTER = 277.5792
MEAN_ANOMALY   = 82.4921

EPHEMERIS_TYPE = 0
CLASSIFICATION_TYPE = U
NORAD_CAT_ID   = 66598
ELEMENT_SET_NO = 999
REV_AT_EPOCH   = 618
BSTAR          = .13375E-2
MEAN_MOTION_DOT = .56078E-3
MEAN_MOTION_DDOT = 0

CCSDS_OMM_VERS = 2.0
CREATION_DATE  = 
ORIGINATOR     = 

OBJECT_NAME    = STARLINK-35930
OBJECT_ID      = 2025-270M
CENTER_NAME    = EARTH
REF_FRAME      = TEME
TIME_SYSTEM    = UTC
MEAN_ELEMENT_THEORY = SGP/SGP4

EPOCH          = 2025-12-26T14:55:36.156864
MEAN_MOTION    = 15.40718778
ECCENTRICITY   = .0001848
INCLINATION    = 43.0021
RA_OF_ASC_NODE = 112.0674
ARG_OF_PERICENTER = 277.3750
MEAN_ANOMALY   = 82.6897

EPHEMERIS_TYPE = 0
CLASSIFICATION_TYPE = U
NORAD_CAT_ID   = 66599
ELEMENT_SET_NO = 999
REV_AT_EPOCH   = 649
BSTAR          = .10666E-2
MEAN_MOTION_DOT = .4454E-3
MEAN_MOTION_DDOT = 0

CCSDS_OMM_VERS = 2.0
CREATION_DATE  = 
ORIGINATOR     = 

OBJECT_NAME    = STARLINK-35980
OBJECT_ID      = 2025-270N
CENTER_NAME    = EARTH
REF_FRAME      = TEME
TIME_SYSTEM    = UTC
MEAN_ELEMENT_THEORY = SGP/SGP4

EPOCH          = 2025-12-26T16:51:32.455872
MEAN_MOTION    = 15.40717072
ECCENTRICITY   = .00014126
INCLINATION    = 43.0005
RA_OF_ASC_NODE = 111.8156
ARG_OF_PERICENTER = 264.0328
MEAN_ANOMALY   = 96.0368

EPHEMERIS_TYPE = 0
CLASSIFICATION_TYPE = U
NORAD_CAT_ID   = 66600
ELEMENT_SET_NO = 999
REV_AT_EPOCH   = 640
BSTAR          = .11356196E-2
MEAN_MOTION_DOT = .47457E-3
MEAN_MOTION_DDOT = 0

CCSDS_OMM_VERS = 2.0
CREATION_DATE  = 
ORIGINATOR     = 

OBJECT_NAME    = STARLINK-35978
OBJECT_ID      = 2025-270P
CENTER_NAME    = EARTH
REF_FRAME      = TEME
TIME_SYSTEM    = UTC
MEAN_ELEMENT_THEORY = SGP/SGP4

EPOCH          = 2025-12-26T14:10:38.424864
MEAN_MOTION    = 15.40750428
ECCENTRICITY   = .0000483
INCLINATION    = 43.0003
RA_OF_ASC_NODE = 112.7006
ARG_OF_PERICENTER = 109.4058
MEAN_ANOMALY   = 250.6851

EPHEMERIS_TYPE = 0
CLASSIFICATION_TYPE = U
NORAD_CAT_ID   = 66601
ELEMENT_SET_NO = 999
REV_AT_EPOCH   = 632
BSTAR          = .12989E-2
MEAN_MOTION_DOT = .54433E-3
MEAN_MOTION_DDOT = 0

